[Satellite]
VERSION=1.1
NAME=SKYSAT-C4
NICKNAME=SKYSAT-C4
TLE1=1 41771U 16058B   17186.26211973  .00000514  00000-0  25347-4 0  9999
TLE2=2 41771  97.3932 258.9055 0002517  63.8220 296.3265 15.22249570 44430
